CCSDS_OMM_VERS = 2.0
CREATION_DATE  = 
ORIGINATOR     = 

OBJECT_NAME    = ATLAS CENTAUR 2
OBJECT_ID      = 1963-047A
CENTER_NAME    = EARTH
REF_FRAME      = TEME
TIME_SYSTEM    = UTC
MEAN_ELEMENT_THEORY = SGP/SGP4

EPOCH          = 2026-03-17T14:32:50.466624
MEAN_MOTION    = 14.12096695
ECCENTRICITY   = .05475055
INCLINATION    = 30.3522
RA_OF_ASC_NODE = 151.3995
ARG_OF_PERICENTER = 150.0520
MEAN_ANOMALY   = 213.2598

EPHEMERIS_TYPE = 0
CLASSIFICATION_TYPE = U
NORAD_CAT_ID   = 694
ELEMENT_SET_NO = 999
REV_AT_EPOCH   = 13274
BSTAR          = .20795399E-3
MEAN_MOTION_DOT = .1799E-4
MEAN_MOTION_DDOT = 0

CCSDS_OMM_VERS = 2.0
CREATION_DATE  = 
ORIGINATOR     = 

OBJECT_NAME    = THOR AGENA D R/B
OBJECT_ID      = 1964-002A
CENTER_NAME    = EARTH
REF_FRAME      = TEME
TIME_SYSTEM    = UTC
MEAN_ELEMENT_THEORY = SGP/SGP4

EPOCH          = 2026-03-17T11:25:54.202656
MEAN_MOTION    = 14.34024767
ECCENTRICITY   = .00321044
INCLINATION    = 99.1220
RA_OF_ASC_NODE = 90.2382
ARG_OF_PERICENTER = 234.7955
MEAN_ANOMALY   = 125.0221

EPHEMERIS_TYPE = 0
CLASSIFICATION_TYPE = U
NORAD_CAT_ID   = 733
ELEMENT_SET_NO = 999
REV_AT_EPOCH   = 23941
BSTAR          = .85586824E-4
MEAN_MOTION_DOT = .191E-5
MEAN_MOTION_DDOT = 0

CCSDS_OMM_VERS = 2.0
CREATION_DATE  = 
ORIGINATOR     = 

OBJECT_NAME    = SL-3 R/B
OBJECT_ID      = 1964-053B
CENTER_NAME    = EARTH
REF_FRAME      = TEME
TIME_SYSTEM    = UTC
MEAN_ELEMENT_THEORY = SGP/SGP4

EPOCH          = 2026-03-17T15:07:33.190464
MEAN_MOTION    = 14.61374148
ECCENTRICITY   = .00800356
INCLINATION    = 65.0771
RA_OF_ASC_NODE = 307.9577
ARG_OF_PERICENTER = 289.7210
MEAN_ANOMALY   = 69.5269

EPHEMERIS_TYPE = 0
CLASSIFICATION_TYPE = U
NORAD_CAT_ID   = 877
ELEMENT_SET_NO = 999
REV_AT_EPOCH   = 26795
BSTAR          = .53978035E-4
MEAN_MOTION_DOT = .153E-5
MEAN_MOTION_DDOT = 0

CCSDS_OMM_VERS = 2.0
CREATION_DATE  = 
ORIGINATOR     = 

OBJECT_NAME    = SL-8 R/B
OBJECT_ID      = 1967-045B
CENTER_NAME    = EARTH
REF_FRAME      = TEME
TIME_SYSTEM    = UTC
MEAN_ELEMENT_THEORY = SGP/SGP4

EPOCH          = 2026-03-17T11:08:12.812352
MEAN_MOTION    = 14.45629567
ECCENTRICITY   = .0064522
INCLINATION    = 74.0134
RA_OF_ASC_NODE = 333.5718
ARG_OF_PERICENTER = 338.0658
MEAN_ANOMALY   = 21.7739

EPHEMERIS_TYPE = 0
CLASSIFICATION_TYPE = U
NORAD_CAT_ID   = 2802
ELEMENT_SET_NO = 999
REV_AT_EPOCH   = 9014
BSTAR          = .91537932E-4
MEAN_MOTION_DOT = .303E-5
MEAN_MOTION_DDOT = 0

CCSDS_OMM_VERS = 2.0
CREATION_DATE  = 
ORIGINATOR     = 

OBJECT_NAME    = SL-8 R/B
OBJECT_ID      = 1968-040B
CENTER_NAME    = EARTH
REF_FRAME      = TEME
TIME_SYSTEM    = UTC
MEAN_ELEMENT_THEORY = SGP/SGP4

EPOCH          = 2026-03-17T15:05:51.292896
MEAN_MOTION    = 15.03310919
ECCENTRICITY   = .0023529
INCLINATION    = 74.0304
RA_OF_ASC_NODE = 297.4711
ARG_OF_PERICENTER = 118.2988
MEAN_ANOMALY   = 242.0579

EPHEMERIS_TYPE = 0
CLASSIFICATION_TYPE = U
NORAD_CAT_ID   = 3230
ELEMENT_SET_NO = 999
REV_AT_EPOCH   = 9120
BSTAR          = .20590542E-3
MEAN_MOTION_DOT = .2768E-4
MEAN_MOTION_DDOT = 0

CCSDS_OMM_VERS = 2.0
CREATION_DATE  = 
ORIGINATOR     = 

OBJECT_NAME    = OAO 2
OBJECT_ID      = 1968-110A
CENTER_NAME    = EARTH
REF_FRAME      = TEME
TIME_SYSTEM    = UTC
MEAN_ELEMENT_THEORY = SGP/SGP4

EPOCH          = 2026-03-17T10:34:34.189536
MEAN_MOTION    = 14.47312249
ECCENTRICITY   = .00062311
INCLINATION    = 34.9924
RA_OF_ASC_NODE = 221.9463
ARG_OF_PERICENTER = 261.8037
MEAN_ANOMALY   = 98.1947

EPHEMERIS_TYPE = 0
CLASSIFICATION_TYPE = U
NORAD_CAT_ID   = 3597
ELEMENT_SET_NO = 999
REV_AT_EPOCH   = 2022
BSTAR          = .61638707E-4
MEAN_MOTION_DOT = .21E-5
MEAN_MOTION_DDOT = 0

CCSDS_OMM_VERS = 2.0
CREATION_DATE  = 
ORIGINATOR     = 

OBJECT_NAME    = ISIS 1
OBJECT_ID      = 1969-009A
CENTER_NAME    = EARTH
REF_FRAME      = TEME
TIME_SYSTEM    = UTC
MEAN_ELEMENT_THEORY = SGP/SGP4

EPOCH          = 2026-03-17T14:19:11.863776
MEAN_MOTION    = 11.30416584
ECCENTRICITY   = .17078853
INCLINATION    = 88.4528
RA_OF_ASC_NODE = 154.4462
ARG_OF_PERICENTER = 73.2123
MEAN_ANOMALY   = 304.8699

EPHEMERIS_TYPE = 0
CLASSIFICATION_TYPE = U
NORAD_CAT_ID   = 3669
ELEMENT_SET_NO = 999
REV_AT_EPOCH   = 34942
BSTAR          = .82920337E-4
MEAN_MOTION_DOT = .139E-5
MEAN_MOTION_DDOT = 0

CCSDS_OMM_VERS = 2.0
CREATION_DATE  = 
ORIGINATOR     = 

OBJECT_NAME    = SERT 2
OBJECT_ID      = 1970-009A
CENTER_NAME    = EARTH
REF_FRAME      = TEME
TIME_SYSTEM    = UTC
MEAN_ELEMENT_THEORY = SGP/SGP4

EPOCH          = 2026-03-17T14:24:43.026336
MEAN_MOTION    = 13.58730607
ECCENTRICITY   = .00053595
INCLINATION    = 99.2769
RA_OF_ASC_NODE = 19.2616
ARG_OF_PERICENTER = 136.5272
MEAN_ANOMALY   = 36.4171

EPHEMERIS_TYPE = 0
CLASSIFICATION_TYPE = U
NORAD_CAT_ID   = 4327
ELEMENT_SET_NO = 999
REV_AT_EPOCH   = 78096
BSTAR          = .54290868E-4
MEAN_MOTION_DOT = -.2E-7
MEAN_MOTION_DDOT = 0

CCSDS_OMM_VERS = 2.0
CREATION_DATE  = 
ORIGINATOR     = 

OBJECT_NAME    = SL-3 R/B
OBJECT_ID      = 1971-028B
CENTER_NAME    = EARTH
REF_FRAME      = TEME
TIME_SYSTEM    = UTC
MEAN_ELEMENT_THEORY = SGP/SGP4

EPOCH          = 2026-03-17T12:55:18.655104
MEAN_MOTION    = 15.61827938
ECCENTRICITY   = .00133585
INCLINATION    = 81.2365
RA_OF_ASC_NODE = 42.3295
ARG_OF_PERICENTER = 251.1260
MEAN_ANOMALY   = 108.8546

EPHEMERIS_TYPE = 0
CLASSIFICATION_TYPE = U
NORAD_CAT_ID   = 5118
ELEMENT_SET_NO = 999
REV_AT_EPOCH   = 98989
BSTAR          = .3851194E-3
MEAN_MOTION_DOT = .33614E-3
MEAN_MOTION_DDOT = 0

CCSDS_OMM_VERS = 2.0
CREATION_DATE  = 
ORIGINATOR     = 

OBJECT_NAME    = ASTEX 1
OBJECT_ID      = 1971-089A
CENTER_NAME    = EARTH
REF_FRAME      = TEME
TIME_SYSTEM    = UTC
MEAN_ELEMENT_THEORY = SGP/SGP4

EPOCH          = 2026-03-17T14:47:26.374272
MEAN_MOTION    = 14.50778379
ECCENTRICITY   = .00175518
INCLINATION    = 92.7110
RA_OF_ASC_NODE = 154.3224
ARG_OF_PERICENTER = 62.4527
MEAN_ANOMALY   = 297.8460

EPHEMERIS_TYPE = 0
CLASSIFICATION_TYPE = U
NORAD_CAT_ID   = 5560
ELEMENT_SET_NO = 999
REV_AT_EPOCH   = 86345
BSTAR          = .12010569E-3
MEAN_MOTION_DOT = .472E-5
MEAN_MOTION_DDOT = 0

CCSDS_OMM_VERS = 2.0
CREATION_DATE  = 
ORIGINATOR     = 

OBJECT_NAME    = SL-8 R/B
OBJECT_ID      = 1971-119B
CENTER_NAME    = EARTH
REF_FRAME      = TEME
TIME_SYSTEM    = UTC
MEAN_ELEMENT_THEORY = SGP/SGP4

EPOCH          = 2026-03-17T14:07:48.188352
MEAN_MOTION    = 14.38045910
ECCENTRICITY   = .05476596
INCLINATION    = 73.8881
RA_OF_ASC_NODE = 160.9534
ARG_OF_PERICENTER = 125.9250
MEAN_ANOMALY   = 239.4020

EPHEMERIS_TYPE = 0
CLASSIFICATION_TYPE = U
NORAD_CAT_ID   = 5730
ELEMENT_SET_NO = 999
REV_AT_EPOCH   = 65662
BSTAR          = .37716668E-3
MEAN_MOTION_DOT = .7212E-4
MEAN_MOTION_DDOT = 0

CCSDS_OMM_VERS = 2.0
CREATION_DATE  = 
ORIGINATOR     = 

OBJECT_NAME    = OAO 3 (COPERNICUS)
OBJECT_ID      = 1972-065A
CENTER_NAME    = EARTH
REF_FRAME      = TEME
TIME_SYSTEM    = UTC
MEAN_ELEMENT_THEORY = SGP/SGP4

EPOCH          = 2026-03-17T14:23:23.933184
MEAN_MOTION    = 14.60004501
ECCENTRICITY   = .00071476
INCLINATION    = 35.0049
RA_OF_ASC_NODE = 252.2493
ARG_OF_PERICENTER = 229.9260
MEAN_ANOMALY   = 186.3377

EPHEMERIS_TYPE = 0
CLASSIFICATION_TYPE = U
NORAD_CAT_ID   = 6153
ELEMENT_SET_NO = 999
REV_AT_EPOCH   = 84735
BSTAR          = .69271983E-4
MEAN_MOTION_DOT = .317E-5
MEAN_MOTION_DDOT = 0

